[{"lat":38.04,"lng":246.12,"city_long_name":"Iron County","city_small_name":"Iron County","state_long_name":"Utah","state_small_name":"Utah","zip":"84753"},
{"lat":38.04,"lng":245.64,"city_long_name":"Lincoln County","city_small_name":"Lincoln County","state_long_name":"Nevada","state_small_name":"Nevada","zip":"89043"},
{"lat":38.04,"lng":245.28,"city_long_name":"Lincoln County","city_small_name":"Lincoln County","state_long_name":"Nevada","state_small_name":"Nevada"},
{"lat":38.04,"lng":244.92,"city_long_name":"Nye County","city_small_name":"Nye County","state_long_name":"Nevada","state_small_name":"Nevada"},
{"lat":38.04,"lng":244.44,"city_long_name":"Lincoln County","city_small_name":"Lincoln County","state_long_name":"Nevada","state_small_name":"Nevada","zip":"89017"},
{"lat":38.04,"lng":243.96,"city_long_name":"Nye County","city_small_name":"Nye County","state_long_name":"Nevada","state_small_name":"Nevada"},
{"lat":38.04,"lng":243.48,"city_long_name":"Nye County","city_small_name":"Nye County","state_long_name":"Nevada","state_small_name":"Nevada"},
{"lat":38.04,"lng":243,"city_long_name":"Nye County","city_small_name":"Nye County","state_long_name":"Nevada","state_small_name":"Nevada","zip":"89049"},
{"lat":38.04,"lng":242.52,"city_long_name":"Esmeralda County","city_small_name":"Esmeralda County","state_long_name":"Nevada","state_small_name":"Nevada"},
{"lat":38.04,"lng":242.04,"city_long_name":"Esmeralda County","city_small_name":"Esmeralda County","state_long_name":"Nevada","state_small_name":"Nevada"},
{"lat":38.04,"lng":241.44,"city_long_name":"Mineral County","city_small_name":"Mineral County","state_long_name":"Nevada","state_small_name":"Nevada","zip":"89422"},
{"lat":38.04,"lng":240.84,"city_long_name":"Mono County","city_small_name":"Mono County","state_long_name":"California","state_small_name":"California","zip":"93541"},
{"lat":38.04,"lng":240.24,"city_long_name":"Tuolumne County","city_small_name":"Tuolumne County","state_long_name":"California","state_small_name":"California"},
{"lat":38.04,"lng":239.64,"city_long_name":"Tuolumne County","city_small_name":"Tuolumne County","state_long_name":"California","state_small_name":"California","zip":"95370"},
{"lat":38.04,"lng":239.04,"city_long_name":"San Joaquin County","city_small_name":"San Joaquin County","state_long_name":"California","state_small_name":"California","zip":"95236"},
{"lat":38.04,"lng":238.32,"city_long_name":"Contra Costa County","city_small_name":"Contra Costa County","state_long_name":"California","state_small_name":"California","zip":"94561"},
{"lat":38.04,"lng":237.72,"city_long_name":"Contra Costa County","city_small_name":"Contra Costa County","state_long_name":"California","state_small_name":"California","zip":"94572"},
{"lat":38.08,"lng":266.88,"city_long_name":"Benton County","city_small_name":"Benton County","state_long_name":"Missouri","state_small_name":"Missouri","zip":"65326"},
{"lat":38.08,"lng":266.16,"city_long_name":"St. Clair County","city_small_name":"St. Clair County","state_long_name":"Missouri","state_small_name":"Missouri","zip":"64776"},
{"lat":38.08,"lng":265.44,"city_long_name":"Bates County","city_small_name":"Bates County","state_long_name":"Missouri","state_small_name":"Missouri","zip":"64752"},
{"lat":38.08,"lng":264.6,"city_long_name":"Anderson County","city_small_name":"Anderson County","state_long_name":"Kansas","state_small_name":"Kansas","zip":"66015"},
{"lat":38.08,"lng":263.76,"city_long_name":"Greenwood County","city_small_name":"Greenwood County","state_long_name":"Kansas","state_small_name":"Kansas","zip":"66860"},
{"lat":38.08,"lng":262.8,"city_long_name":"Harvey County","city_small_name":"Harvey County","state_long_name":"Kansas","state_small_name":"Kansas","zip":"67114"},
{"lat":38.08,"lng":261.84,"city_long_name":"Reno County","city_small_name":"Reno County","state_long_name":"Kansas","state_small_name":"Kansas","zip":"67579"},
{"lat":38.08,"lng":260.88,"city_long_name":"Pawnee County","city_small_name":"Pawnee County","state_long_name":"Kansas","state_small_name":"Kansas","zip":"67550"},
{"lat":38.08,"lng":259.92,"city_long_name":"Hodgeman County","city_small_name":"Hodgeman County","state_long_name":"Kansas","state_small_name":"Kansas","zip":"67854"},
{"lat":38.08,"lng":258.84,"city_long_name":"Kearny County","city_small_name":"Kearny County","state_long_name":"Kansas","state_small_name":"Kansas","zip":"67838"},
{"lat":38.08,"lng":257.76,"city_long_name":"Prowers County","city_small_name":"Prowers County","state_long_name":"Colorado","state_small_name":"Colorado","zip":"81047"},
{"lat":38.08,"lng":256.68,"city_long_name":"Bent County","city_small_name":"Bent County","state_long_name":"Colorado","state_small_name":"Colorado","zip":"81054"},
{"lat":38.08,"lng":255.48,"city_long_name":"Pueblo County","city_small_name":"Pueblo County","state_long_name":"Colorado","state_small_name":"Colorado","zip":"81022"},
{"lat":38.08,"lng":254.16,"city_long_name":"Saguache County","city_small_name":"Saguache County","state_long_name":"Colorado","state_small_name":"Colorado","zip":"81143"},
{"lat":38.08,"lng":252.84,"city_long_name":"Gunnison County","city_small_name":"Gunnison County","state_long_name":"Colorado","state_small_name":"Colorado","zip":"81243"},
{"lat":38.08,"lng":251.52,"city_long_name":"San Miguel County","city_small_name":"San Miguel County","state_long_name":"Colorado","state_small_name":"Colorado","zip":"81325"},
{"lat":38.08,"lng":250.08,"city_long_name":"San Juan County","city_small_name":"San Juan County","state_long_name":"Utah","state_small_name":"Utah","zip":"84535"},
{"lat":38.08,"lng":249,"city_long_name":"Garfield County","city_small_name":"Garfield County","state_long_name":"Utah","state_small_name":"Utah"},
{"lat":38.08,"lng":264.6,"city_long_name":"Anderson County","city_small_name":"Anderson County","state_long_name":"Kansas","state_small_name":"Kansas","zip":"66015"},
{"lat":38.08,"lng":263.76,"city_long_name":"Greenwood County","city_small_name":"Greenwood County","state_long_name":"Kansas","state_small_name":"Kansas","zip":"66860"},
{"lat":38.08,"lng":262.8,"city_long_name":"Harvey County","city_small_name":"Harvey County","state_long_name":"Kansas","state_small_name":"Kansas","zip":"67114"},
{"lat":38.08,"lng":261.84,"city_long_name":"Reno County","city_small_name":"Reno County","state_long_name":"Kansas","state_small_name":"Kansas","zip":"67579"},
{"lat":38.08,"lng":260.88,"city_long_name":"Pawnee County","city_small_name":"Pawnee County","state_long_name":"Kansas","state_small_name":"Kansas","zip":"67550"},
{"lat":38.08,"lng":259.92,"city_long_name":"Hodgeman County","city_small_name":"Hodgeman County","state_long_name":"Kansas","state_small_name":"Kansas","zip":"67854"},
{"lat":38.08,"lng":258.84,"city_long_name":"Kearny County","city_small_name":"Kearny County","state_long_name":"Kansas","state_small_name":"Kansas","zip":"67838"},
{"lat":38.08,"lng":257.76,"city_long_name":"Prowers County","city_small_name":"Prowers County","state_long_name":"Colorado","state_small_name":"Colorado","zip":"81047"},
{"lat":38.08,"lng":256.68,"city_long_name":"Bent County","city_small_name":"Bent County","state_long_name":"Colorado","state_small_name":"Colorado","zip":"81054"},
{"lat":38.08,"lng":255.48,"city_long_name":"Pueblo County","city_small_name":"Pueblo County","state_long_name":"Colorado","state_small_name":"Colorado","zip":"81022"},
{"lat":38.08,"lng":254.16,"city_long_name":"Saguache County","city_small_name":"Saguache County","state_long_name":"Colorado","state_small_name":"Colorado","zip":"81143"},
{"lat":38.08,"lng":252.84,"city_long_name":"Gunnison County","city_small_name":"Gunnison County","state_long_name":"Colorado","state_small_name":"Colorado","zip":"81243"},
{"lat":38.08,"lng":251.52,"city_long_name":"San Miguel County","city_small_name":"San Miguel County","state_long_name":"Colorado","state_small_name":"Colorado","zip":"81325"},
{"lat":38.08,"lng":250.08,"city_long_name":"San Juan County","city_small_name":"San Juan County","state_long_name":"Utah","state_small_name":"Utah","zip":"84535"},
{"lat":38.08,"lng":249,"city_long_name":"Garfield County","city_small_name":"Garfield County","state_long_name":"Utah","state_small_name":"Utah"}]
