[{"lat":38.04,"lng":266.88,"city_long_name":"Hickory County","city_small_name":"Hickory County","state_long_name":"Missouri","state_small_name":"Missouri","zip":"65326"}
{"lat":38.04,"lng":266.76,"city_long_name":"Hickory County","city_small_name":"Hickory County","state_long_name":"Missouri","state_small_name":"Missouri","zip":"65326"}
{"lat":38.04,"lng":266.64,"city_long_name":"Hickory County","city_small_name":"Hickory County","state_long_name":"Missouri","state_small_name":"Missouri","zip":"65355"}
{"lat":38.04,"lng":266.52,"city_long_name":"Hickory County","city_small_name":"Hickory County","state_long_name":"Missouri","state_small_name":"Missouri","zip":"65735"}
{"lat":38.04,"lng":266.4,"city_long_name":"St. Clair County","city_small_name":"St. Clair County","state_long_name":"Missouri","state_small_name":"Missouri","zip":"64776"}
{"lat":38.04,"lng":266.28,"city_long_name":"St. Clair County","city_small_name":"St. Clair County","state_long_name":"Missouri","state_small_name":"Missouri","zip":"64776"}
{"lat":38.04,"lng":266.16,"city_long_name":"St. Clair County","city_small_name":"St. Clair County","state_long_name":"Missouri","state_small_name":"Missouri","zip":"64776"}
{"lat":38.04,"lng":266.04,"city_long_name":"St. Clair County","city_small_name":"St. Clair County","state_long_name":"Missouri","state_small_name":"Missouri","zip":"64780"}
{"lat":38.04,"lng":265.92,"city_long_name":"Bates County","city_small_name":"Bates County","state_long_name":"Missouri","state_small_name":"Missouri","zip":"64780"}
{"lat":38.04,"lng":265.8,"city_long_name":"Vernon County","city_small_name":"Vernon County","state_long_name":"Missouri","state_small_name":"Missouri","zip":"64783"}
{"lat":38.04,"lng":265.68,"city_long_name":"Vernon County","city_small_name":"Vernon County","state_long_name":"Missouri","state_small_name":"Missouri","zip":"64779"}
{"lat":38.04,"lng":265.56,"city_long_name":"Vernon County","city_small_name":"Vernon County","state_long_name":"Missouri","state_small_name":"Missouri","zip":"64779"}
{"lat":38.04,"lng":265.44,"city_long_name":"Vernon County","city_small_name":"Vernon County","state_long_name":"Missouri","state_small_name":"Missouri","zip":"64752"}
{"lat":38.04,"lng":265.32,"city_long_name":"Linn County","city_small_name":"Linn County","state_long_name":"Kansas","state_small_name":"Kansas","zip":"66767"}
{"lat":38.04,"lng":265.2,"city_long_name":"Linn County","city_small_name":"Linn County","state_long_name":"Kansas","state_small_name":"Kansas","zip":"66738"}
{"lat":38.04,"lng":265.08,"city_long_name":"Linn County","city_small_name":"Linn County","state_long_name":"Kansas","state_small_name":"Kansas","zip":"66754"}
{"lat":38.04,"lng":264.96,"city_long_name":"Linn County","city_small_name":"Linn County","state_long_name":"Kansas","state_small_name":"Kansas","zip":"66010"}
{"lat":38.04,"lng":264.84,"city_long_name":"Anderson County","city_small_name":"Anderson County","state_long_name":"Kansas","state_small_name":"Kansas"}
{"lat":38.04,"lng":264.72,"city_long_name":"Anderson County","city_small_name":"Anderson County","state_long_name":"Kansas","state_small_name":"Kansas","zip":"66751"}
{"lat":38.04,"lng":264.6,"state_long_name":"Kansas","state_small_name":"Kansas","zip":"66749"}
{"lat":38.04,"lng":264.48,"city_long_name":"Anderson County","city_small_name":"Anderson County","state_long_name":"Kansas","state_small_name":"Kansas","zip":"66015"}
{"lat":38.04,"lng":264.36,"city_long_name":"Coffey County","city_small_name":"Coffey County","state_long_name":"Kansas","state_small_name":"Kansas","zip":"66758"}
{"lat":38.04,"lng":264.24,"state_long_name":"Kansas","state_small_name":"Kansas","zip":"66783"}
{"lat":38.04,"lng":264.12,"city_long_name":"Coffey County","city_small_name":"Coffey County","state_long_name":"Kansas","state_small_name":"Kansas","zip":"66852"}
{"lat":38.04,"lng":264,"city_long_name":"Greenwood County","city_small_name":"Greenwood County","state_long_name":"Kansas","state_small_name":"Kansas","zip":"66870"}
{"lat":38.04,"lng":263.88,"city_long_name":"Greenwood County","city_small_name":"Greenwood County","state_long_name":"Kansas","state_small_name":"Kansas","zip":"66860"}
{"lat":38.04,"lng":263.76,"city_long_name":"Greenwood County","city_small_name":"Greenwood County","state_long_name":"Kansas","state_small_name":"Kansas","zip":"66853"}
{"lat":38.04,"lng":263.64,"city_long_name":"Greenwood County","city_small_name":"Greenwood County","state_long_name":"Kansas","state_small_name":"Kansas","zip":"66853"}
{"lat":38.04,"lng":263.52,"city_long_name":"Greenwood County","city_small_name":"Greenwood County","state_long_name":"Kansas","state_small_name":"Kansas","zip":"66862"}
{"lat":38.04,"lng":263.4,"city_long_name":"Butler County","city_small_name":"Butler County","state_long_name":"Kansas","state_small_name":"Kansas","zip":"66842"}
{"lat":38.04,"lng":263.28,"city_long_name":"Butler County","city_small_name":"Butler County","state_long_name":"Kansas","state_small_name":"Kansas","zip":"66842"}
{"lat":38.04,"lng":263.16,"city_long_name":"Butler County","city_small_name":"Butler County","state_long_name":"Kansas","state_small_name":"Kansas","zip":"66840"}
{"lat":38.04,"lng":263.04,"city_long_name":"Butler County","city_small_name":"Butler County","state_long_name":"Kansas","state_small_name":"Kansas","zip":"66840"}
{"lat":38.04,"lng":262.92,"city_long_name":"Butler County","city_small_name":"Butler County","state_long_name":"Kansas","state_small_name":"Kansas","zip":"67114"}
{"lat":38.04,"lng":262.8,"city_long_name":"Harvey County","city_small_name":"Harvey County","state_long_name":"Kansas","state_small_name":"Kansas","zip":"67114"}
{"lat":38.04,"lng":262.68,"city_long_name":"Harvey County","city_small_name":"Harvey County","state_long_name":"Kansas","state_small_name":"Kansas","zip":"67114"}
{"lat":38.04,"lng":262.56,"city_long_name":"Harvey County","city_small_name":"Harvey County","state_long_name":"Kansas","state_small_name":"Kansas","zip":"67114"}
{"lat":38.04,"lng":262.44,"city_long_name":"Harvey County","city_small_name":"Harvey County","state_long_name":"Kansas","state_small_name":"Kansas","zip":"67056"}
{"lat":38.04,"lng":262.32,"city_long_name":"Harvey County","city_small_name":"Harvey County","state_long_name":"Kansas","state_small_name":"Kansas","zip":"67020"}
{"lat":38.04,"lng":262.2,"city_long_name":"Reno County","city_small_name":"Reno County","state_long_name":"Kansas","state_small_name":"Kansas","zip":"67501"}
{"lat":38.04,"lng":262.08,"city_long_name":"Reno County","city_small_name":"Reno County","state_long_name":"Kansas","state_small_name":"Kansas","zip":"67501"}
{"lat":38.04,"lng":261.96,"city_long_name":"Reno County","city_small_name":"Reno County","state_long_name":"Kansas","state_small_name":"Kansas","zip":"67501"}
{"lat":38.04,"lng":261.84,"city_long_name":"Reno County","city_small_name":"Reno County","state_long_name":"Kansas","state_small_name":"Kansas","zip":"67566"}
{"lat":38.04,"lng":261.72,"city_long_name":"Reno County","city_small_name":"Reno County","state_long_name":"Kansas","state_small_name":"Kansas","zip":"67568"}
{"lat":38.04,"lng":261.6,"city_long_name":"Reno County","city_small_name":"Reno County","state_long_name":"Kansas","state_small_name":"Kansas","zip":"67581"}
{"lat":38.04,"lng":261.48,"city_long_name":"Stafford County","city_small_name":"Stafford County","state_long_name":"Kansas","state_small_name":"Kansas","zip":"67578"}
{"lat":38.04,"lng":261.36,"city_long_name":"Stafford County","city_small_name":"Stafford County","state_long_name":"Kansas","state_small_name":"Kansas","zip":"67578"}
{"lat":38.04,"lng":261.24,"city_long_name":"Stafford County","city_small_name":"Stafford County","state_long_name":"Kansas","state_small_name":"Kansas","zip":"67576"}
{"lat":38.04,"lng":261.12,"city_long_name":"Stafford County","city_small_name":"Stafford County","state_long_name":"Kansas","state_small_name":"Kansas","zip":"67576"}
{"lat":38.04,"lng":261,"city_long_name":"Pawnee County","city_small_name":"Pawnee County","state_long_name":"Kansas","state_small_name":"Kansas","zip":"67550"}]
